[{"OBJECT_NAME":"ONEWEB-0140","OBJECT_ID":"2020-100AE","EPOCH":"2026-03-21T12:36:51.861600","MEAN_MOTION":13.12444386,"ECCENTRICITY":0.00018028,"INCLINATION":87.9017,"RA_OF_ASC_NODE":8.0414,"ARG_OF_PERICENTER":83.9052,"MEAN_ANOMALY":276.2282,"EPHEMERIS_TYPE":0,"CLASSIFICATION_TYPE":"U","NORAD_CAT_ID":47286,"ELEMENT_SET_NO":999,"REV_AT_EPOCH":25319,"BSTAR":-0.00057294228,"MEAN_MOTION_DOT":-1.93e-6,"MEAN_MOTION_DDOT":0},{"OBJECT_NAME":"ONEWEB-0141","OBJECT_ID":"2020-100AF","EPOCH":"2026-03-21T11:52:45.006240","MEAN_MOTION":13.12442896,"ECCENTRICITY":0.00016445,"INCLINATION":87.9016,"RA_OF_ASC_NODE":8.0536,"ARG_OF_PERICENTER":68.1865,"MEAN_ANOMALY":291.9438,"EPHEMERIS_TYPE":0,"CLASSIFICATION_TYPE":"U","NORAD_CAT_ID":47287,"ELEMENT_SET_NO":999,"REV_AT_EPOCH":25317,"BSTAR":8.2341983e-5,"MEAN_MOTION_DOT":4.2e-7,"MEAN_MOTION_DDOT":0},{"OBJECT_NAME":"ONEWEB-0142","OBJECT_ID":"2020-100AG","EPOCH":"2026-03-21T13:25:51.021984","MEAN_MOTION":13.12444826,"ECCENTRICITY":0.00019419,"INCLINATION":87.9014,"RA_OF_ASC_NODE":8.0652,"ARG_OF_PERICENTER":66.2194,"MEAN_ANOMALY":293.9138,"EPHEMERIS_TYPE":0,"CLASSIFICATION_TYPE":"U","NORAD_CAT_ID":47288,"ELEMENT_SET_NO":999,"REV_AT_EPOCH":25317,"BSTAR":0.0012290905,"MEAN_MOTION_DOT":4.55e-6,"MEAN_MOTION_DDOT":0},{"OBJECT_NAME":"ONEWEB-0143","OBJECT_ID":"2020-100AH","EPOCH":"2026-03-21T11:50:30.509952","MEAN_MOTION":13.124434,"ECCENTRICITY":0.00017845,"INCLINATION":87.9013,"RA_OF_ASC_NODE":8.0747,"ARG_OF_PERICENTER":77.4172,"MEAN_ANOMALY":282.7156,"EPHEMERIS_TYPE":0,"CLASSIFICATION_TYPE":"U","NORAD_CAT_ID":47289,"ELEMENT_SET_NO":999,"REV_AT_EPOCH":25314,"BSTAR":0.00047118991,"MEAN_MOTION_DOT":1.82e-6,"MEAN_MOTION_DDOT":0},{"OBJECT_NAME":"ONEWEB-0144","OBJECT_ID":"2020-100AJ","EPOCH":"2026-03-21T12:58:49.494432","MEAN_MOTION":13.1244321,"ECCENTRICITY":0.00021209,"INCLINATION":87.9019,"RA_OF_ASC_NODE":8.0353,"ARG_OF_PERICENTER":74.3429,"MEAN_ANOMALY":285.7933,"EPHEMERIS_TYPE":0,"CLASSIFICATION_TYPE":"U","NORAD_CAT_ID":47290,"ELEMENT_SET_NO":999,"REV_AT_EPOCH":25307,"BSTAR":0.00070709334,"MEAN_MOTION_DOT":2.67e-6,"MEAN_MOTION_DDOT":0},{"OBJECT_NAME":"ONEWEB-0145","OBJECT_ID":"2020-100AK","EPOCH":"2026-03-21T12:17:21.132096","MEAN_MOTION":13.12443103,"ECCENTRICITY":0.00018867,"INCLINATION":87.9008,"RA_OF_ASC_NODE":8.0783,"ARG_OF_PERICENTER":76.5653,"MEAN_ANOMALY":283.5686,"EPHEMERIS_TYPE":0,"CLASSIFICATION_TYPE":"U","NORAD_CAT_ID":47291,"ELEMENT_SET_NO":999,"REV_AT_EPOCH":25326,"BSTAR":-0.0010550499,"MEAN_MOTION_DOT":-3.67e-6,"MEAN_MOTION_DDOT":0},{"OBJECT_NAME":"ONEWEB-0146","OBJECT_ID":"2020-100AL","EPOCH":"2026-03-21T12:12:27.345312","MEAN_MOTION":13.12442246,"ECCENTRICITY":0.00016073,"INCLINATION":87.9015,"RA_OF_ASC_NODE":8.0645,"ARG_OF_PERICENTER":87.5899,"MEAN_ANOMALY":272.5413,"EPHEMERIS_TYPE":0,"CLASSIFICATION_TYPE":"U","NORAD_CAT_ID":47292,"ELEMENT_SET_NO":999,"REV_AT_EPOCH":25317,"BSTAR":-0.00078100904,"MEAN_MOTION_DOT":-2.68e-6,"MEAN_MOTION_DDOT":0},{"OBJECT_NAME":"ONEWEB-0147","OBJECT_ID":"2020-100AM","EPOCH":"2026-03-21T13:13:27.912000","MEAN_MOTION":13.12444857,"ECCENTRICITY":0.00020522,"INCLINATION":87.9017,"RA_OF_ASC_NODE":8.0365,"ARG_OF_PERICENTER":83.2999,"MEAN_ANOMALY":276.8364,"EPHEMERIS_TYPE":0,"CLASSIFICATION_TYPE":"U","NORAD_CAT_ID":47293,"ELEMENT_SET_NO":999,"REV_AT_EPOCH":25307,"BSTAR":0.0013432557,"MEAN_MOTION_DOT":4.96e-6,"MEAN_MOTION_DDOT":0},{"OBJECT_NAME":"ONEWEB-0115","OBJECT_ID":"2021-025A","EPOCH":"2026-03-21T10:03:31.674240","MEAN_MOTION":13.13472067,"ECCENTRICITY":0.0001489,"INCLINATION":87.9037,"RA_OF_ASC_NODE":337.6855,"ARG_OF_PERICENTER":80.4944,"MEAN_ANOMALY":279.6353,"EPHEMERIS_TYPE":0,"CLASSIFICATION_TYPE":"U","NORAD_CAT_ID":48042,"ELEMENT_SET_NO":999,"REV_AT_EPOCH":24207,"BSTAR":0.00012980578,"MEAN_MOTION_DOT":6.0e-7,"MEAN_MOTION_DDOT":0},{"OBJECT_NAME":"ONEWEB-0152","OBJECT_ID":"2021-025B","EPOCH":"2026-03-21T10:23:01.918176","MEAN_MOTION":13.13470842,"ECCENTRICITY":0.00016827,"INCLINATION":87.9026,"RA_OF_ASC_NODE":337.6836,"ARG_OF_PERICENTER":83.2968,"MEAN_ANOMALY":276.8353,"EPHEMERIS_TYPE":0,"CLASSIFICATION_TYPE":"U","NORAD_CAT_ID":48043,"ELEMENT_SET_NO":999,"REV_AT_EPOCH":24203,"BSTAR":-0.00081349633,"MEAN_MOTION_DOT":-2.84e-6,"MEAN_MOTION_DDOT":0},{"OBJECT_NAME":"ONEWEB-0153","OBJECT_ID":"2021-025C","EPOCH":"2026-03-21T09:51:20.907360","MEAN_MOTION":13.13471085,"ECCENTRICITY":0.00017417,"INCLINATION":87.9023,"RA_OF_ASC_NODE":337.693,"ARG_OF_PERICENTER":75.8213,"MEAN_ANOMALY":284.3109,"EPHEMERIS_TYPE":0,"CLASSIFICATION_TYPE":"U","NORAD_CAT_ID":48044,"ELEMENT_SET_NO":999,"REV_AT_EPOCH":24202,"BSTAR":0.000344478,"MEAN_MOTION_DOT":1.39e-6,"MEAN_MOTION_DDOT":0},{"OBJECT_NAME":"ONEWEB-0154","OBJECT_ID":"2021-025D","EPOCH":"2026-03-21T15:15:33.463872","MEAN_MOTION":13.13468264,"ECCENTRICITY":0.00017885,"INCLINATION":87.9024,"RA_OF_ASC_NODE":337.6459,"ARG_OF_PERICENTER":81.5659,"MEAN_ANOMALY":278.5673,"EPHEMERIS_TYPE":0,"CLASSIFICATION_TYPE":"U","NORAD_CAT_ID":48045,"ELEMENT_SET_NO":999,"REV_AT_EPOCH":24201,"BSTAR":0.00043439649,"MEAN_MOTION_DOT":1.71e-6,"MEAN_MOTION_DDOT":0},{"OBJECT_NAME":"ONEWEB-0116","OBJECT_ID":"2021-025E","EPOCH":"2026-03-21T10:42:32.146560","MEAN_MOTION":13.13473398,"ECCENTRICITY":0.00016174,"INCLINATION":87.9033,"RA_OF_ASC_NODE":337.6724,"ARG_OF_PERICENTER":84.0764,"MEAN_ANOMALY":276.055,"EPHEMERIS_TYPE":0,"CLASSIFICATION_TYPE":"U","NORAD_CAT_ID":48046,"ELEMENT_SET_NO":999,"REV_AT_EPOCH":24213,"BSTAR":-0.001224341,"MEAN_MOTION_DOT":-4.34e-6,"MEAN_MOTION_DDOT":0},{"OBJECT_NAME":"ONEWEB-0150","OBJECT_ID":"2021-025F","EPOCH":"2026-03-21T10:08:24.343008","MEAN_MOTION":13.13470855,"ECCENTRICITY":0.0001585,"INCLINATION":87.9035,"RA_OF_ASC_NODE":337.6747,"ARG_OF_PERICENTER":73.4839,"MEAN_ANOMALY":286.6464,"EPHEMERIS_TYPE":0,"CLASSIFICATION_TYPE":"U","NORAD_CAT_ID":48047,"ELEMENT_SET_NO":999,"REV_AT_EPOCH":24202,"BSTAR":-0.00057495942,"MEAN_MOTION_DOT":-1.97e-6,"MEAN_MOTION_DDOT":0},{"OBJECT_NAME":"ONEWEB-0107","OBJECT_ID":"2021-025G","EPOCH":"2026-03-20T23:12:40.690368","MEAN_MOTION":13.13470024,"ECCENTRICITY":0.00018869,"INCLINATION":87.9034,"RA_OF_ASC_NODE":337.7603,"ARG_OF_PERICENTER":72.1826,"MEAN_ANOMALY":287.9509,"EPHEMERIS_TYPE":0,"CLASSIFICATION_TYPE":"U","NORAD_CAT_ID":48048,"ELEMENT_SET_NO":999,"REV_AT_EPOCH":24194,"BSTAR":-0.00095433225,"MEAN_MOTION_DOT":-3.36e-6,"MEAN_MOTION_DDOT":0},{"OBJECT_NAME":"ONEWEB-0101","OBJECT_ID":"2021-025H","EPOCH":"2026-03-21T11:06:55.564704","MEAN_MOTION":13.13471803,"ECCENTRICITY":0.00018746,"INCLINATION":87.9022,"RA_OF_ASC_NODE":337.6868,"ARG_OF_PERICENTER":78.7034,"MEAN_ANOMALY":281.4306,"EPHEMERIS_TYPE":0,"CLASSIFICATION_TYPE":"U","NORAD_CAT_ID":48049,"ELEMENT_SET_NO":999,"REV_AT_EPOCH":24198,"BSTAR":0.0010470999,"MEAN_MOTION_DOT":3.95e-6,"MEAN_MOTION_DDOT":0}]
