ONEWEB-0140             
1 47286U 20100AE  26080.52560025 -.00000193  00000+0 -57294-3 0  9995
2 47286  87.9017   8.0414 0001802  83.9052 276.2282 13.12444386253191
ONEWEB-0141             
1 47287U 20100AF  26080.49496535  .00000042  00000+0  82342-4 0  9990
2 47287  87.9016   8.0536 0001644  68.1865 291.9438 13.12442896253176
ONEWEB-0142             
1 47288U 20100AG  26080.55961831  .00000455  00000+0  12291-2 0  9996
2 47288  87.9014   8.0652 0001941  66.2194 293.9138 13.12444826253172
ONEWEB-0143             
1 47289U 20100AH  26080.49340868  .00000182  00000+0  47119-3 0  9996
2 47289  87.9013   8.0747 0001784  77.4172 282.7156 13.12443400253142
ONEWEB-0144             
1 47290U 20100AJ  26080.54085063  .00000267  00000+0  70709-3 0  9992
2 47290  87.9019   8.0353 0002120  74.3429 285.7933 13.12443210253076
ONEWEB-0145             
1 47291U 20100AK  26080.51205014 -.00000367  00000+0 -10550-2 0  9990
2 47291  87.9008   8.0783 0001886  76.5653 283.5686 13.12443103253266
ONEWEB-0146             
1 47292U 20100AL  26080.50864983 -.00000268  00000+0 -78101-3 0  9993
2 47292  87.9015   8.0645 0001607  87.5899 272.5413 13.12442246253170
ONEWEB-0147             
1 47293U 20100AM  26080.55101750  .00000496  00000+0  13433-2 0  9992
2 47293  87.9017   8.0365 0002052  83.2999 276.8364 13.12444857253072
ONEWEB-0115             
1 48042U 21025A   26080.41911660  .00000060  00000+0  12981-3 0  9991
2 48042  87.9037 337.6855 0001489  80.4944 279.6353 13.13472067242076
ONEWEB-0152             
1 48043U 21025B   26080.43266109 -.00000284  00000+0 -81350-3 0  9991
2 48043  87.9026 337.6836 0001682  83.2968 276.8353 13.13470842242030
ONEWEB-0153             
1 48044U 21025C   26080.41065865  .00000139  00000+0  34448-3 0  9999
2 48044  87.9023 337.6930 0001741  75.8213 284.3109 13.13471085242021
ONEWEB-0154             
1 48045U 21025D   26080.63580398  .00000171  00000+0  43440-3 0  9995
2 48045  87.9024 337.6459 0001788  81.5659 278.5673 13.13468264242013
ONEWEB-0116             
1 48046U 21025E   26080.44620540 -.00000434  00000+0 -12243-2 0  9999
2 48046  87.9033 337.6724 0001617  84.0764 276.0550 13.13473398242139
ONEWEB-0150             
1 48047U 21025F   26080.42250397 -.00000197  00000+0 -57496-3 0  9993
2 48047  87.9035 337.6747 0001585  73.4839 286.6464 13.13470855242020
ONEWEB-0107             
1 48048U 21025G   26079.96713762 -.00000336  00000+0 -95433-3 0  9999
2 48048  87.9034 337.7603 0001886  72.1826 287.9509 13.13470024241940
ONEWEB-0101             
1 48049U 21025H   26080.46314311  .00000395  00000+0  10471-2 0  9995
2 48049  87.9022 337.6868 0001874  78.7034 281.4306 13.13471803241984
